{
  "type": "FeatureCollection",
  "features": [
    {
      "type": "Feature",
      "properties": {
        "norad_id": 33860,
        "name": "IRIDIUM 33 DEB",
        "group": "iridium-33-debris",
        "lat": -0.6199703855618955,
        "lon": 23.436320143445283,
        "alt_km": 668.5943457883759,
        "timestamp": "2025-12-21T05:44:51.972311+00:00",
        "meta_object_name": "IRIDIUM 33 DEB",
        "meta_object_id": "1997-051AD",
        "meta_epoch": "2025-12-20T20:29:23.154144",
        "meta_mean_motion": 14.67455814,
        "meta_eccentricity": 0.0006442,
        "meta_inclination": 86.3823,
        "meta_ra_of_asc_node": 23.6463,
        "meta_arg_of_pericenter": 327.0709,
        "meta_mean_anomaly": 155.8571,
        "meta_ephemeris_type": 0,
        "meta_classification_type": "U",
        "meta_norad_cat_id": 33860,
        "meta_element_set_no": 999,
        "meta_rev_at_epoch": 88841,
        "meta_bstar": 0.00066996269,
        "meta_mean_motion_dot": 3.814e-05,
        "meta_mean_motion_ddot": 0,
        "tle_line1": "1 33860U 97051AD  25354.85374021  .00003814  00000+0  66996-3 0  9995",
        "tle_line2": "2 33860  86.3823  23.6463 0006442 327.0709 155.8571 14.67455814888416"
      },
      "geometry": {
        "type": "Point",
        "coordinates": [
          23.436320143445283,
          -0.6199703855618955
        ]
      }
    },
    {
      "type": "Feature",
      "properties": {
        "norad_id": 33862,
        "name": "IRIDIUM 33 DEB",
        "group": "iridium-33-debris",
        "lat": 79.22810898916109,
        "lon": -165.49791002474396,
        "alt_km": 636.1214166168456,
        "timestamp": "2025-12-21T05:44:51.972322+00:00",
        "meta_object_name": "IRIDIUM 33 DEB",
        "meta_object_id": "1997-051AF",
        "meta_epoch": "2025-12-20T13:30:03.805056",
        "meta_mean_motion": 14.69587199,
        "meta_eccentricity": 0.0052676,
        "meta_inclination": 86.4079,
        "meta_ra_of_asc_node": 34.0806,
        "meta_arg_of_pericenter": 42.9982,
        "meta_mean_anomaly": 77.561,
        "meta_ephemeris_type": 0,
        "meta_classification_type": "U",
        "meta_norad_cat_id": 33862,
        "meta_element_set_no": 999,
        "meta_rev_at_epoch": 88938,
        "meta_bstar": 0.00081002,
        "meta_mean_motion_dot": 4.938e-05,
        "meta_mean_motion_ddot": 0,
        "tle_line1": "1 33862U 97051AF  25354.56254404  .00004938  00000+0  81002-3 0  9990",
        "tle_line2": "2 33862  86.4079  34.0806 0052676  42.9982  77.5610 14.69587199889380"
      },
      "geometry": {
        "type": "Point",
        "coordinates": [
          -165.49791002474396,
          79.22810898916109
        ]
      }
    },
    {
      "type": "Feature",
      "properties": {
        "norad_id": 33866,
        "name": "IRIDIUM 33 DEB",
        "group": "iridium-33-debris",
        "lat": -73.52811032297957,
        "lon": -77.91917773345722,
        "alt_km": 854.8366304996725,
        "timestamp": "2025-12-21T05:44:51.972333+00:00",
        "meta_object_name": "IRIDIUM 33 DEB",
        "meta_object_id": "1997-051AK",
        "meta_epoch": "2025-12-20T19:02:31.124256",
        "meta_mean_motion": 14.25296873,
        "meta_eccentricity": 0.01150044,
        "meta_inclination": 86.3001,
        "meta_ra_of_asc_node": 89.6286,
        "meta_arg_of_pericenter": 135.8612,
        "meta_mean_anomaly": 349.482,
        "meta_ephemeris_type": 0,
        "meta_classification_type": "U",
        "meta_norad_cat_id": 33866,
        "meta_element_set_no": 999,
        "meta_rev_at_epoch": 86925,
        "meta_bstar": 0.0003750045,
        "meta_mean_motion_dot": 9.66e-06,
        "meta_mean_motion_ddot": 0,
        "tle_line1": "1 33866U 97051AK  25354.79341579  .00000966  00000+0  37500-3 0  9990",
        "tle_line2": "2 33866  86.3001  89.6286 0115004 135.8612 349.4820 14.25296873869259"
      },
      "geometry": {
        "type": "Point",
        "coordinates": [
          -77.91917773345722,
          -73.52811032297957
        ]
      }
    },
    {
      "type": "Feature",
      "properties": {
        "norad_id": 33867,
        "name": "IRIDIUM 33 DEB",
        "group": "iridium-33-debris",
        "lat": -46.82743104420659,
        "lon": 169.5197339967973,
        "alt_km": 323.98904952879366,
        "timestamp": "2025-12-21T05:44:51.972344+00:00",
        "meta_object_name": "IRIDIUM 33 DEB",
        "meta_object_id": "1997-051AL",
        "meta_epoch": "2025-12-20T00:00:24.546240",
        "meta_mean_motion": 15.83320916,
        "meta_eccentricity": 0.00135723,
        "meta_inclination": 86.3644,
        "meta_ra_of_asc_node": 346.2932,
        "meta_arg_of_pericenter": 95.1198,
        "meta_mean_anomaly": 265.1629,
        "meta_ephemeris_type": 0,
        "meta_classification_type": "U",
        "meta_norad_cat_id": 33867,
        "meta_element_set_no": 999,
        "meta_rev_at_epoch": 89625,
        "meta_bstar": 0.0064207293,
        "meta_mean_motion_dot": 0.01574163,
        "meta_mean_motion_ddot": 0,
        "tle_line1": "1 33867U 97051AL  25354.00028410  .01574163  00000+0  64207-2 0  9990",
        "tle_line2": "2 33867  86.3644 346.2932 0013572  95.1198 265.1629 15.83320916896259"
      },
      "geometry": {
        "type": "Point",
        "coordinates": [
          169.5197339967973,
          -46.82743104420659
        ]
      }
    },
    {
      "type": "Feature",
      "properties": {
        "norad_id": 33870,
        "name": "IRIDIUM 33 DEB",
        "group": "iridium-33-debris",
        "lat": -80.02145995375635,
        "lon": -104.25631461067148,
        "alt_km": 751.8844037561321,
        "timestamp": "2025-12-21T05:44:51.972355+00:00",
        "meta_object_name": "IRIDIUM 33 DEB",
        "meta_object_id": "1997-051AP",
        "meta_epoch": "2025-12-20T22:43:18.717888",
        "meta_mean_motion": 14.45888373,
        "meta_eccentricity": 0.00222826,
        "meta_inclination": 86.3739,
        "meta_ra_of_asc_node": 54.7429,
        "meta_arg_of_pericenter": 151.873,
        "meta_mean_anomaly": 25.7353,
        "meta_ephemeris_type": 0,
        "meta_classification_type": "U",
        "meta_norad_cat_id": 33870,
        "meta_element_set_no": 999,
        "meta_rev_at_epoch": 88255,
        "meta_bstar": 0.0004761985,
        "meta_mean_motion_dot": 1.716e-05,
        "meta_mean_motion_ddot": 0,
        "tle_line1": "1 33870U 97051AP  25354.94674442  .00001716  00000+0  47620-3 0  9998",
        "tle_line2": "2 33870  86.3739  54.7429 0022282 151.8730  25.7353 14.45888373882555"
      },
      "geometry": {
        "type": "Point",
        "coordinates": [
          -104.25631461067148,
          -80.02145995375635
        ]
      }
    },
    {
      "type": "Feature",
      "properties": {
        "norad_id": 33881,
        "name": "IRIDIUM 33 DEB",
        "group": "iridium-33-debris",
        "lat": 81.7294858781117,
        "lon": -102.7193577081464,
        "alt_km": 668.2201743682945,
        "timestamp": "2025-12-21T05:44:51.972370+00:00",
        "meta_object_name": "IRIDIUM 33 DEB",
        "meta_object_id": "1997-051BA",
        "meta_epoch": "2025-12-20T18:27:12.976416",
        "meta_mean_motion": 14.56702482,
        "meta_eccentricity": 0.00613627,
        "meta_inclination": 86.3866,
        "meta_ra_of_asc_node": 103.253,
        "meta_arg_of_pericenter": 148.7613,
        "meta_mean_anomaly": 2.955,
        "meta_ephemeris_type": 0,
        "meta_classification_type": "U",
        "meta_norad_cat_id": 33881,
        "meta_element_set_no": 999,
        "meta_rev_at_epoch": 87617,
        "meta_bstar": 0.0011797904,
        "meta_mean_motion_dot": 5.428e-05,
        "meta_mean_motion_ddot": 0,
        "tle_line1": "1 33881U 97051BA  25354.76890019  .00005428  00000+0  11798-2 0  9990",
        "tle_line2": "2 33881  86.3866 103.2530 0061362 148.7613   2.9550 14.56702482876173"
      },
      "geometry": {
        "type": "Point",
        "coordinates": [
          -102.7193577081464,
          81.7294858781117
        ]
      }
    },
    {
      "type": "Feature",
      "properties": {
        "norad_id": 33884,
        "name": "IRIDIUM 33 DEB",
        "group": "iridium-33-debris",
        "lat": -37.92747848221938,
        "lon": 3.1452722979608057,
        "alt_km": 638.0479754825992,
        "timestamp": "2025-12-21T05:44:51.972381+00:00",
        "meta_object_name": "IRIDIUM 33 DEB",
        "meta_object_id": "1997-051BD",
        "meta_epoch": "2025-12-20T19:06:20.177568",
        "meta_mean_motion": 14.77573333,
        "meta_eccentricity": 0.00091017,
        "meta_inclination": 86.3692,
        "meta_ra_of_asc_node": 6.1816,
        "meta_arg_of_pericenter": 292.2796,
        "meta_mean_anomaly": 192.6099,
        "meta_ephemeris_type": 0,
        "meta_classification_type": "U",
        "meta_norad_cat_id": 33884,
        "meta_element_set_no": 999,
        "meta_rev_at_epoch": 88966,
        "meta_bstar": 0.00096382416,
        "meta_mean_motion_dot": 6.912e-05,
        "meta_mean_motion_ddot": 0,
        "tle_line1": "1 33884U 97051BD  25354.79606687  .00006912  00000+0  96382-3 0  9994",
        "tle_line2": "2 33884  86.3692   6.1816 0009101 292.2796 192.6099 14.77573333889668"
      },
      "geometry": {
        "type": "Point",
        "coordinates": [
          3.1452722979608057,
          -37.92747848221938
        ]
      }
    }
  ]
}